[{"OBJECT_NAME":"LIZZIESAT-1 (LS-1)","OBJECT_ID":"2024-043AL","EPOCH":"2026-03-09T21:24:55.126944","MEAN_MOTION":15.26635712,"ECCENTRICITY":0.00099234,"INCLINATION":97.5461,"RA_OF_ASC_NODE":203.4772,"ARG_OF_PERICENTER":229.9925,"MEAN_ANOMALY":130.0443,"EPHEMERIS_TYPE":0,"CLASSIFICATION_TYPE":"U","NORAD_CAT_ID":59132,"ELEMENT_SET_NO":999,"REV_AT_EPOCH":11178,"BSTAR":0.0002232873,"MEAN_MOTION_DOT":5.784e-5,"MEAN_MOTION_DDOT":0},{"OBJECT_NAME":"STARLINK-32637","OBJECT_ID":"2024-216A","EPOCH":"2026-03-09T12:23:09.361248","MEAN_MOTION":15.27599792,"ECCENTRICITY":9.67e-5,"INCLINATION":42.9983,"RA_OF_ASC_NODE":256.9137,"ARG_OF_PERICENTER":222.7896,"MEAN_ANOMALY":137.288,"EPHEMERIS_TYPE":0,"CLASSIFICATION_TYPE":"U","NORAD_CAT_ID":62032,"ELEMENT_SET_NO":999,"REV_AT_EPOCH":7385,"BSTAR":0.0010629212,"MEAN_MOTION_DOT":0.0002912,"MEAN_MOTION_DDOT":0}]
