LIZZIESAT-1 (LS-1)      
1 59132U 24043AL  26068.89230471  .00005784  00000+0  22329-3 0  9993
2 59132  97.5461 203.4772 0009923 229.9925 130.0443 15.26635711111780
STARLINK-32637          
1 62032U 24216A   26068.51608057  .00029120  00000+0  10629-2 0  9995
2 62032  42.9983 256.9137 0000967 222.7896 137.2880 15.27599792 73859
